[{"OBJECT_NAME":"IRIDIUM 130","OBJECT_ID":"2017-083D","EPOCH":"2026-03-09T21:39:51.158880","MEAN_MOTION":14.3421742,"ECCENTRICITY":0.00018247,"INCLINATION":86.4028,"RA_OF_ASC_NODE":3.7574,"ARG_OF_PERICENTER":90.7485,"MEAN_ANOMALY":269.392,"EPHEMERIS_TYPE":0,"CLASSIFICATION_TYPE":"U","NORAD_CAT_ID":43073,"ELEMENT_SET_NO":999,"REV_AT_EPOCH":42988,"BSTAR":-6.674968e-6,"MEAN_MOTION_DOT":1.0e-8,"MEAN_MOTION_DDOT":0},{"OBJECT_NAME":"THORAD AGENA D DEB","OBJECT_ID":"1969-082HY","EPOCH":"2026-03-09T10:27:08.661888","MEAN_MOTION":14.43809612,"ECCENTRICITY":0.00462896,"INCLINATION":70.0541,"RA_OF_ASC_NODE":205.1803,"ARG_OF_PERICENTER":355.5211,"MEAN_ANOMALY":4.5499,"EPHEMERIS_TYPE":0,"CLASSIFICATION_TYPE":"U","NORAD_CAT_ID":5519,"ELEMENT_SET_NO":999,"REV_AT_EPOCH":93669,"BSTAR":0.00045409707,"MEAN_MOTION_DOT":1.507e-5,"MEAN_MOTION_DDOT":0}]
